METOP-B                 
1 38771U 12049A   23024.14677729  .00000249  00000+0  13372-3 0  9999
2 38771  98.7008  85.7882 0001661 102.1336 285.2593 14.21503103537085
